[
    {
        "Altitude(m)": 554142.8764128615,
        "Argument of Periapsis(deg)": 0.019868973332140504,
        "Eccentricity": 0.0,
        "Inclination(deg)": 53.0,
        "Latitude(deg)": 23.373457356225735,
        "Longitude(deg)": 153.72115064978016,
        "Mean Anomaly(deg)": 150.27487860273274,
        "RAAN(deg)": 94.97043010558406,
        "Satellite Name": "Starlink Shell 1 425",
        "Satellite Number": 425,
        "Semi-Major Axis(m)": 6931778.249405717,
        "Time(s)": 570
    },
    {
        "Altitude(m)": 554090.9593291503,
        "Argument of Periapsis(deg)": 0.02021755181165174,
        "Eccentricity": 0.0,
        "Inclination(deg)": 53.0,
        "Latitude(deg)": 22.896587944715808,
        "Longitude(deg)": 154.1249624879213,
        "Mean Anomaly(deg)": 150.90170980628952,
        "RAAN(deg)": 94.96991133550658,
        "Satellite Name": "Starlink Shell 1 425",
        "Satellite Number": 425,
        "Semi-Major Axis(m)": 6931778.249405717,
        "Time(s)": 580
    },
    {
        "Altitude(m)": 554040.8657161146,
        "Argument of Periapsis(deg)": 0.020566130291162974,
        "Eccentricity": 0.0,
        "Inclination(deg)": 53.0,
        "Latitude(deg)": 22.418453693817998,
        "Longitude(deg)": 154.5256714435194,
        "Mean Anomaly(deg)": 151.52854100984624,
        "RAAN(deg)": 94.9693925654291,
        "Satellite Name": "Starlink Shell 1 425",
        "Satellite Number": 425,
        "Semi-Major Axis(m)": 6931778.249405717,
        "Time(s)": 590
    },
    {
        "Altitude(m)": 553992.6405257923,
        "Argument of Periapsis(deg)": 0.020914708770674213,
        "Eccentricity": 0.0,
        "Inclination(deg)": 53.0,
        "Latitude(deg)": 21.939092009900435,
        "Longitude(deg)": 154.92336238996023,
        "Mean Anomaly(deg)": 152.15537221340293,
        "RAAN(deg)": 94.96887379535163,
        "Satellite Name": "Starlink Shell 1 425",
        "Satellite Number": 425,
        "Semi-Major Axis(m)": 6931778.249405717,
        "Time(s)": 600
    },
    {
        "Altitude(m)": 553946.3279367673,
        "Argument of Periapsis(deg)": 0.021263287250185448,
        "Eccentricity": 0.0,
        "Inclination(deg)": 53.0,
        "Latitude(deg)": 21.45853958539793,
        "Longitude(deg)": 155.3181190287899,
        "Mean Anomaly(deg)": 152.7822034169596,
        "RAAN(deg)": 94.96835502527418,
        "Satellite Name": "Starlink Shell 1 425",
        "Satellite Number": 425,
        "Semi-Major Axis(m)": 6931778.249405717,
        "Time(s)": 610
    },
    {
        "Altitude(m)": 553901.9713299236,
        "Argument of Periapsis(deg)": 0.021611865729696686,
        "Eccentricity": 0.0,
        "Inclination(deg)": 53.0,
        "Latitude(deg)": 20.97683242234824,
        "Longitude(deg)": 155.7100244157211,
        "Mean Anomaly(deg)": 153.4090346205163,
        "RAAN(deg)": 94.9678362551967,
        "Satellite Name": "Starlink Shell 1 425",
        "Satellite Number": 425,
        "Semi-Major Axis(m)": 6931778.249405717,
        "Time(s)": 620
    },
    {
        "Altitude(m)": 553859.6132645503,
        "Argument of Periapsis(deg)": 0.02196044420920792,
        "Eccentricity": 0.0,
        "Inclination(deg)": 53.0,
        "Latitude(deg)": 20.494005855419612,
        "Longitude(deg)": 156.09915980647818,
        "Mean Anomaly(deg)": 154.03586582407306,
        "RAAN(deg)": 94.96731748511922,
        "Satellite Name": "Starlink Shell 1 425",
        "Satellite Number": 425,
        "Semi-Major Axis(m)": 6931778.249405717,
        "Time(s)": 630
    },
    {
        "Altitude(m)": 553819.2954548522,
        "Argument of Periapsis(deg)": 0.02230902268871916,
        "Eccentricity": 0.0,
        "Inclination(deg)": 53.0,
        "Latitude(deg)": 20.010094574429758,
        "Longitude(deg)": 156.48560602481868,
        "Mean Anomaly(deg)": 154.66269702762978,
        "RAAN(deg)": 94.96679871504175,
        "Satellite Name": "Starlink Shell 1 425",
        "Satellite Number": 425,
        "Semi-Major Axis(m)": 6931778.249405717,
        "Time(s)": 640
    },
    {
        "Altitude(m)": 553781.0587468091,
        "Argument of Periapsis(deg)": 0.022657601168230398,
        "Eccentricity": 0.0,
        "Inclination(deg)": 53.0,
        "Latitude(deg)": 19.52513264637179,
        "Longitude(deg)": 156.86944230973134,
        "Mean Anomaly(deg)": 155.28952823118647,
        "RAAN(deg)": 94.96627994496427,
        "Satellite Name": "Starlink Shell 1 425",
        "Satellite Number": 425,
        "Semi-Major Axis(m)": 6931778.249405717,
        "Time(s)": 650
    },
    {
        "Altitude(m)": 553744.9430954873,
        "Argument of Periapsis(deg)": 0.023006179647741636,
        "Eccentricity": 0.0,
        "Inclination(deg)": 53.0,
        "Latitude(deg)": 19.039153536949836,
        "Longitude(deg)": 157.25074684416222,
        "Mean Anomaly(deg)": 155.9163594347432,
        "RAAN(deg)": 94.9657611748868,
        "Satellite Name": "Starlink Shell 1 425",
        "Satellite Number": 425,
        "Semi-Major Axis(m)": 6931778.249405717,
        "Time(s)": 660
    },
    {
        "Altitude(m)": 553710.987542717,
        "Argument of Periapsis(deg)": 0.023354758127252868,
        "Eccentricity": 0.0,
        "Inclination(deg)": 53.0,
        "Latitude(deg)": 18.5521901316369,
        "Longitude(deg)": 157.62959728422365,
        "Mean Anomaly(deg)": 156.54319063829993,
        "RAAN(deg)": 94.96524240480935,
        "Satellite Name": "Starlink Shell 1 425",
        "Satellite Number": 425,
        "Semi-Major Axis(m)": 6931778.249405717,
        "Time(s)": 670
    },
    {
        "Altitude(m)": 553679.2301952208,
        "Argument of Periapsis(deg)": 0.023703336606764106,
        "Eccentricity": 0.0,
        "Inclination(deg)": 53.0,
        "Latitude(deg)": 18.064274756266048,
        "Longitude(deg)": 158.006069775949,
        "Mean Anomaly(deg)": 157.17002184185665,
        "RAAN(deg)": 94.96472363473187,
        "Satellite Name": "Starlink Shell 1 425",
        "Satellite Number": 425,
        "Semi-Major Axis(m)": 6931778.249405717,
        "Time(s)": 680
    },
    {
        "Altitude(m)": 553649.7082031928,
        "Argument of Periapsis(deg)": 0.024051915086275345,
        "Eccentricity": 0.0,
        "Inclination(deg)": 53.0,
        "Latitude(deg)": 17.575439197161696,
        "Longitude(deg)": 158.38023948527987,
        "Mean Anomaly(deg)": 157.7968530454134,
        "RAAN(deg)": 94.96420486465439,
        "Satellite Name": "Starlink Shell 1 425",
        "Satellite Number": 425,
        "Semi-Major Axis(m)": 6931778.249405717,
        "Time(s)": 690
    },
    {
        "Altitude(m)": 553622.4577393074,
        "Argument of Periapsis(deg)": 0.024400493565786583,
        "Eccentricity": 0.0,
        "Inclination(deg)": 53.0,
        "Latitude(deg)": 17.08571472082446,
        "Longitude(deg)": 158.75218112835694,
        "Mean Anomaly(deg)": 158.42368424897006,
        "RAAN(deg)": 94.96368609457691,
        "Satellite Name": "Starlink Shell 1 425",
        "Satellite Number": 425,
        "Semi-Major Axis(m)": 6931778.249405717,
        "Time(s)": 700
    },
    {
        "Altitude(m)": 553597.5139781993,
        "Argument of Periapsis(deg)": 0.024749072045297815,
        "Eccentricity": 0.0,
        "Inclination(deg)": 53.0,
        "Latitude(deg)": 16.595132093182098,
        "Longitude(deg)": 159.1219679891913,
        "Mean Anomaly(deg)": 159.05051545252678,
        "RAAN(deg)": 94.96316732449944,
        "Satellite Name": "Starlink Shell 1 425",
        "Satellite Number": 425,
        "Semi-Major Axis(m)": 6931778.249405717,
        "Time(s)": 710
    },
    {
        "Altitude(m)": 553574.9110764086,
        "Argument of Periapsis(deg)": 0.025097650524809053,
        "Eccentricity": 0.0,
        "Inclination(deg)": 53.0,
        "Latitude(deg)": 16.1037215984149,
        "Longitude(deg)": 159.48967245041908,
        "Mean Anomaly(deg)": 159.67734665608344,
        "RAAN(deg)": 94.96264855442196,
        "Satellite Name": "Starlink Shell 1 425",
        "Satellite Number": 425,
        "Semi-Major Axis(m)": 6931778.249405717,
        "Time(s)": 720
    },
    {
        "Altitude(m)": 553554.682152838,
        "Argument of Periapsis(deg)": 0.02544622900432029,
        "Eccentricity": 0.0,
        "Inclination(deg)": 53.0,
        "Latitude(deg)": 15.611513057367965,
        "Longitude(deg)": 159.85536652422448,
        "Mean Anomaly(deg)": 160.3041778596402,
        "RAAN(deg)": 94.9621297843445,
        "Satellite Name": "Starlink Shell 1 425",
        "Satellite Number": 425,
        "Semi-Major Axis(m)": 6931778.249405717,
        "Time(s)": 730
    },
    {
        "Altitude(m)": 553536.8592696752,
        "Argument of Periapsis(deg)": 0.02579480748383153,
        "Eccentricity": 0.0,
        "Inclination(deg)": 53.0,
        "Latitude(deg)": 15.118535845567045,
        "Longitude(deg)": 160.21912087051933,
        "Mean Anomaly(deg)": 160.93100906319694,
        "RAAN(deg)": 94.96161101426704,
        "Satellite Name": "Starlink Shell 1 425",
        "Satellite Number": 425,
        "Semi-Major Axis(m)": 6931778.249405717,
        "Time(s)": 740
    },
    {
        "Altitude(m)": 553521.4734138324,
        "Argument of Periapsis(deg)": 0.026143385963342765,
        "Eccentricity": 0.0,
        "Inclination(deg)": 53.0,
        "Latitude(deg)": 14.624818910842828,
        "Longitude(deg)": 160.58100532809635,
        "Mean Anomaly(deg)": 161.55784026675363,
        "RAAN(deg)": 94.96109224418953,
        "Satellite Name": "Starlink Shell 1 425",
        "Satellite Number": 425,
        "Semi-Major Axis(m)": 6931778.249405717,
        "Time(s)": 750
    }
]